{
  "59083": {
    "noradId": "59083",
    "tle": [
      "1 59083C 24041K   26064.16437500  .00009597  00000+0  34771-3 0   647",
      "2 59083  43.0027 253.0737 0001433 266.2131  64.5342 15.27557082    19"
    ]
  },
  "59084": {
    "noradId": "59084",
    "tle": [
      "1 59084C 24041L   26064.16229167  .00038369  00000+0  13899-2 0   642",
      "2 59084  43.0032 336.4323 0001327 281.5949 208.2960 15.27535127    11"
    ]
  },
  "59085": {
    "noradId": "59085",
    "tle": [
      "1 59085C 24041M   26064.16090278  .00033959  00000+0  12298-2 0   644",
      "2 59085  43.0024 322.0155 0001654 250.7193 115.5400 15.27549207    12"
    ]
  },
  "59086": {
    "noradId": "59086",
    "tle": [
      "1 59086C 24041N   26064.16506944  .00011765  00000+0  42611-3 0   641",
      "2 59086  43.0030 336.6034 0001688 256.7836 170.5681 15.27568032    13"
    ]
  },
  "59087": {
    "noradId": "59087",
    "tle": [
      "1 59087C 24041P   26064.16506944  .00036822  00000+0  13328-2 0   645",
      "2 59087  43.0022 336.0982 0001391 252.6831  26.9090 15.27564785    11"
    ]
  },
  "59088": {
    "noradId": "59088",
    "tle": [
      "1 59088C 24041Q   26064.16229167 -.00004656  00000+0 -16862-3 0   644",
      "2 59088  43.0024 336.1474 0001618 247.6913   2.4514 15.27585300    14"
    ]
  },
  "59089": {
    "noradId": "59089",
    "tle": [
      "1 59089C 24041R   26064.16368056  .00003677  00000+0  13317-3 0   648",
      "2 59089  43.0022 336.0928 0001657 253.0309  25.9866 15.27575163    15"
    ]
  },
  "59090": {
    "noradId": "59090",
    "tle": [
      "1 59090C 24041S   26064.16784722  .00017637  00000+0  63881-3 0   644",
      "2 59090  42.9998 289.4239 0001482 259.0704  23.9772 15.27560770    16"
    ]
  },
  "59092": {
    "noradId": "59092",
    "tle": [
      "1 59092C 24041U   26064.16645833  .00039641  00000+0  14361-2 0   642",
      "2 59092  43.0015 336.6784 0001833 276.4891 123.1445 15.27530895    15"
    ]
  },
  "59093": {
    "noradId": "59093",
    "tle": [
      "1 59093C 24041V   26064.16368056  .00027347  00000+0  99218-3 0   647",
      "2 59093  43.0035 336.5226 0001595 270.0500 185.0952 15.27495237    10"
    ]
  },
  "59095": {
    "noradId": "59095",
    "tle": [
      "1 59095C 24041X   26064.16715278  .00040443  00000+0  14650-2 0   649",
      "2 59095  43.0025 336.2179 0001319 281.6493 312.8253 15.27534951    19"
    ]
  },
  "59096": {
    "noradId": "59096",
    "tle": [
      "1 59096C 24041Y   26064.16576389  .00000458  00000+0  16586-4 0   642",
      "2 59096  43.0022 336.1894 0001378 277.4584 323.5081 15.27580494    10"
    ]
  },
  "59152": {
    "noradId": "59152",
    "tle": [
      "1 59152C 24044A   26064.16715278  .00020085  00000+0  72777-3 0   641",
      "2 59152  43.0004  81.8646 0001504 269.4050 284.3508 15.27544895    15"
    ]
  },
  "59153": {
    "noradId": "59153",
    "tle": [
      "1 59153C 24044B   26064.16784722  .00000851  00000+0  30820-4 0   645",
      "2 59153  43.0000  85.7316 0001136 251.8742 173.8441 15.27566397    12"
    ]
  },
  "59154": {
    "noradId": "59154",
    "tle": [
      "1 59154C 24044C   26064.16159722 -.00000951  00000+0 -34475-4 0   645",
      "2 59154  43.0027 132.6871 0001378 252.5041  51.5985 15.27558979    10"
    ]
  },
  "59155": {
    "noradId": "59155",
    "tle": [
      "1 59155C 24044D   26064.16784722  .00000162  00000+0  58639-5 0   641",
      "2 59155  43.0024 136.2785 0001601 269.0357 354.2937 15.27572552    17"
    ]
  },
  "59156": {
    "noradId": "59156",
    "tle": [
      "1 59156C 24044E   26064.16298611  .00060389  00000+0  21884-2 0   645",
      "2 59156  43.0026 136.2534 0001398 293.5043 324.2576 15.27502142    13"
    ]
  },
  "59157": {
    "noradId": "59157",
    "tle": [
      "1 59157C 24044F   26064.16298611 -.00002288  00000+0 -82899-4 0   647",
      "2 59157  43.0027 136.1480 0001261 261.0418  39.2148 15.27570262    15"
    ]
  },
  "59158": {
    "noradId": "59158",
    "tle": [
      "1 59158C 24044G   26064.16784722  .00018953  00000+0  68672-3 0   647",
      "2 59158  43.0028 132.7023 0001434 287.0874  30.1699 15.27547370    13"
    ]
  },
  "59159": {
    "noradId": "59159",
    "tle": [
      "1 59159C 24044H   26064.16784722  .00010836  00000+0  39270-3 0   642",
      "2 59159  42.9995 132.2119 0001431 248.5134 273.9172 15.27550654    16"
    ]
  },
  "59160": {
    "noradId": "59160",
    "tle": [
      "1 59160C 24044J   26064.16437500 -.00057365  00000+0 -20777-2 0   644",
      "2 59160  43.0026 132.7549 0001369 264.4036  19.5664 15.27636127    15"
    ]
  },
  "59161": {
    "noradId": "59161",
    "tle": [
      "1 59161C 24044K   26064.16298611 -.00026118  00000+0 -94592-3 0   642",
      "2 59161  42.9993 132.2894 0001460 264.8595 209.5314 15.27606957    12"
    ]
  },
  "59162": {
    "noradId": "59162",
    "tle": [
      "1 59162C 24044L   26064.16229167  .00010765  00000+0  39011-3 0   647",
      "2 59162  42.9993 132.3435 0001383 250.4972 198.9059 15.27550447    18"
    ]
  },
  "59163": {
    "noradId": "59163",
    "tle": [
      "1 59163C 24044M   26064.16645833  .00025210  00000+0  91371-3 0   648",
      "2 59163  42.9995 132.3694 0001470 251.2044 199.9280 15.27530910    14"
    ]
  },
  "59164": {
    "noradId": "59164",
    "tle": [
      "1 59164C 24044N   26064.16298611  .00037075  00000+0  13439-2 0   647",
      "2 59164  43.0005 132.4456 0001300 289.1168 121.6979 15.27516392    10"
    ]
  },
  "59165": {
    "noradId": "59165",
    "tle": [
      "1 59165C 24044P   26064.16506944 -.00092808  00000+0 -33594-2 0   640",
      "2 59165  43.0005 132.4680 0001371 261.3571 146.6824 15.27691181    14"
    ]
  },
  "59166": {
    "noradId": "59166",
    "tle": [
      "1 59166C 24044Q   26064.16645833  .00017639  00000+0  63926-3 0   642",
      "2 59166  43.0011 132.5100 0001462 250.0279 144.5077 15.27541336    14"
    ]
  },
  "59167": {
    "noradId": "59167",
    "tle": [
      "1 59167C 24044R   26064.16298611 -.00013173  00000+0 -47714-3 0   649",
      "2 59167  43.0017 132.5766 0001232 263.8238  90.3161 15.27590144    14"
    ]
  },
  "59168": {
    "noradId": "59168",
    "tle": [
      "1 59168C 24044S   26064.16159722  .00023295  00000+0  84416-3 0   643",
      "2 59168  43.0014 132.9175 0001474 289.3892 275.6545 15.27538616    17"
    ]
  },
  "59169": {
    "noradId": "59169",
    "tle": [
      "1 59169C 24044T   26064.16506944  .00034390  00000+0  12464-2 0   647",
      "2 59169  43.0020 132.7975 0001573 250.4277  16.2258 15.27523721    18"
    ]
  },
  "59170": {
    "noradId": "59170",
    "tle": [
      "1 59170C 24044U   26064.16645833 -.00001368  00000+0 -49562-4 0   642",
      "2 59170  43.0013  93.0216 0001424 268.6600   6.1379 15.27577004    10"
    ]
  },
  "59171": {
    "noradId": "59171",
    "tle": [
      "1 59171C 24044V   26064.16437500 -.00040028  00000+0 -14489-2 0   647",
      "2 59171  43.0019 132.8518 0001389 259.6419 341.8022 15.27639375    16"
    ]
  },
  "59172": {
    "noradId": "59172",
    "tle": [
      "1 59172C 24044W   26064.16229167  .00000205  00000+0  74218-5 0   646",
      "2 59172  43.0004  85.7768 0001271 271.8480 116.2089 15.27563702    15"
    ]
  },
  "59173": {
    "noradId": "59173",
    "tle": [
      "1 59173C 24044X   26064.16159722  .00021955  00000+0  79572-3 0   647",
      "2 59173  43.0023 132.6320 0001447 285.8229  39.5166 15.27536142    15"
    ]
  },
  "59174": {
    "noradId": "59174",
    "tle": [
      "1 59174C 24044Y   26064.16576389  .00032232  00000+0  11666-2 0   649",
      "2 59174  42.9997  85.6603 0001263 284.5952 164.9821 15.27569016    17"
    ]
  },
  "59178": {
    "noradId": "59178",
    "tle": [
      "1 59178C 24045A   26064.16506944  .00009880  00000+0  35790-3 0   642",
      "2 59178  43.0018 114.7998 0001498 254.0098 246.9931 15.27563100    12"
    ]
  },
  "59179": {
    "noradId": "59179",
    "tle": [
      "1 59179C 24045B   26064.16298611  .00030357  00000+0  10997-2 0   646",
      "2 59179  43.0028 118.2473 0001442 277.9671 221.3157 15.27543731    16"
    ]
  },
  "59180": {
    "noradId": "59180",
    "tle": [
      "1 59180C 24045C   26064.15395833  .00001119  00000+0  40541-4 0   645",
      "2 59180  42.9998 118.5826 0001373 260.8622  68.4182 15.27575208    19"
    ]
  },
  "59181": {
    "noradId": "59181",
    "tle": [
      "1 59181C 24045D   26064.16437500  .00035572  00000+0  12897-2 0   646",
      "2 59181  43.0008 114.8523 0001675 258.3929 217.6826 15.27511211    11"
    ]
  },
  "59182": {
    "noradId": "59182",
    "tle": [
      "1 59182C 24045E   26064.16645833  .00031263  00000+0  11325-2 0   645",
      "2 59182  42.9993 117.8011 0001423 247.3981  87.8713 15.27542757    16"
    ]
  },
  "59184": {
    "noradId": "59184",
    "tle": [
      "1 59184C 24045G   26064.16784722 -.00018575  00000+0 -67306-3 0   642",
      "2 59184  42.9994 117.7254 0001354 275.7094  95.5163 15.27584058    15"
    ]
  },
  "59185": {
    "noradId": "59185",
    "tle": [
      "1 59185C 24045H   26064.16506944 -.00043435  00000+0 -15737-2 0   644",
      "2 59185  43.0023 107.5962 0001246 273.4359 349.5984 15.27612585    13"
    ]
  },
  "59186": {
    "noradId": "59186",
    "tle": [
      "1 59186C 24045J   26064.16229167  .00006011  00000+0  21781-3 0   648",
      "2 59186  43.0012  96.6832 0001565 257.5729 123.8453 15.27559087    15"
    ]
  },
  "59187": {
    "noradId": "59187",
    "tle": [
      "1 59187C 24045K   26064.16715278  .00020734  00000+0  75159-3 0   648",
      "2 59187  43.0027 118.1728 0001379 251.2426 292.2008 15.27532010    18"
    ]
  },
  "59188": {
    "noradId": "59188",
    "tle": [
      "1 59188C 24045L   26064.16576389  .00035828  00000+0  12991-2 0   641",
      "2 59188  43.0013 118.0353 0001362 249.0404 343.3699 15.27508698    19"
    ]
  }
}